zip,Zipcode name,City,State,County Name
98520,"ABERDEEN, WA",ABERDEEN,WA,GRAYS HARBOR
98220,"ACME, WA",ACME,WA,WHATCOM
99101,"ADDY, WA",ADDY,WA,STEVENS
98522,"ADNA, WA",ADNA,WA,LEWIS
99001,"AIRWAY HEIGHTS, WA",AIRWAY HEIGHTS,WA,SPOKANE
99102,"ALBION, WA",ALBION,WA,WHITMAN
98524,"ALLYN, WA",ALLYN,WA,MASON
99103,"ALMIRA, WA",ALMIRA,WA,LINCOLN
98526,"AMANDA PARK, WA",AMANDA PARK,WA,GRAYS HARBOR
98601,"AMBOY, WA",AMBOY,WA,CLARK
98221,"ANACORTES, WA",ANACORTES,WA,SKAGIT
99401,"ANATONE, WA",ANATONE,WA,ASOTIN
98303,"ANDERSON ISLAND, WA",ANDERSON ISLAND,WA,PIERCE
98602,"APPLETON, WA",APPLETON,WA,KLICKITAT
98811,"ARDENVOIR, WA",ARDENVOIR,WA,CHELAN
98603,"ARIEL, WA",ARIEL,WA,COWLITZ
98223,"ARLINGTON, WA",ARLINGTON,WA,SNOHOMISH
98304,"ASHFORD, WA",ASHFORD,WA,PIERCE
99402,"ASOTIN, WA",ASOTIN,WA,ASOTIN
98001,"AUBURN, WA",AUBURN,WA,KING
98002,"AUBURN, WA",AUBURN,WA,KING
98071,"AUBURN, WA",AUBURN,WA,KING
98092,"AUBURN, WA",AUBURN,WA,KING
98110,"BAINBRIDGE ISLAND, WA",BAINBRIDGE ISLAND,WA,KITSAP
98604,"BATTLE GROUND, WA",BATTLE GROUND,WA,CLARK
98527,"BAY CENTER, WA",BAY CENTER,WA,PACIFIC
98305,"BEAVER, WA",BEAVER,WA,CLALLAM
98528,"BELFAIR, WA",BELFAIR,WA,MASON
98004,"BELLEVUE, WA",BELLEVUE,WA,KING
98005,"BELLEVUE, WA",BELLEVUE,WA,KING
98006,"BELLEVUE, WA",BELLEVUE,WA,KING
98007,"BELLEVUE, WA",BELLEVUE,WA,KING
98008,"BELLEVUE, WA",BELLEVUE,WA,KING
98009,"BELLEVUE, WA",BELLEVUE,WA,KING
98015,"BELLEVUE, WA",BELLEVUE,WA,KING
98225,"BELLINGHAM, WA",BELLINGHAM,WA,WHATCOM
98226,"BELLINGHAM, WA",BELLINGHAM,WA,WHATCOM
98227,"BELLINGHAM, WA",BELLINGHAM,WA,WHATCOM
98228,"BELLINGHAM, WA",BELLINGHAM,WA,WHATCOM
98229,"BELLINGHAM, WA",BELLINGHAM,WA,WHATCOM
99104,"BELMONT, WA",BELMONT,WA,WHITMAN
99320,"BENTON CITY, WA",BENTON CITY,WA,BENTON
99321,"BEVERLY, WA",BEVERLY,WA,GRANT
99322,"BICKLETON, WA",BICKLETON,WA,KLICKITAT
98605,"BINGEN, WA",BINGEN,WA,KLICKITAT
98010,"BLACK DIAMOND, WA",BLACK DIAMOND,WA,KING
98230,"BLAINE, WA",BLAINE,WA,WHATCOM
98231,"BLAINE, WA",BLAINE,WA,WHATCOM
98222,"BLAKELY ISLAND, WA",BLAKELY ISLAND,WA,SAN JUAN
98391,"BONNEY LAKE, WA",BONNEY LAKE,WA,PIERCE
98011,"BOTHELL, WA",BOTHELL,WA,KING
98041,"BOTHELL, WA",BOTHELL,WA,KING
98012,"BOTHELL, WA",BOTHELL,WA,SNOHOMISH
98021,"BOTHELL, WA",BOTHELL,WA,SNOHOMISH
98232,"BOW, WA",BOW,WA,SKAGIT
99107,"BOYDS, WA",BOYDS,WA,FERRY
98310,"BREMERTON, WA",BREMERTON,WA,KITSAP
98311,"BREMERTON, WA",BREMERTON,WA,KITSAP
98312,"BREMERTON, WA",BREMERTON,WA,KITSAP
98314,"BREMERTON, WA",BREMERTON,WA,KITSAP
98337,"BREMERTON, WA",BREMERTON,WA,KITSAP
98812,"BREWSTER, WA",BREWSTER,WA,OKANOGAN
98813,"BRIDGEPORT, WA",BRIDGEPORT,WA,DOUGLAS
98320,"BRINNON, WA",BRINNON,WA,JEFFERSON
98606,"BRUSH PRAIRIE, WA",BRUSH PRAIRIE,WA,CLARK
98321,"BUCKLEY, WA",BUCKLEY,WA,PIERCE
98530,"BUCODA, WA",BUCODA,WA,THURSTON
98921,"BUENA, WA",BUENA,WA,YAKIMA
99323,"BURBANK, WA",BURBANK,WA,WALLA WALLA
98322,"BURLEY, WA",BURLEY,WA,KITSAP
98233,"BURLINGTON, WA",BURLINGTON,WA,SKAGIT
98013,"BURTON, WA",BURTON,WA,KING
98282,"CAMANO ISLAND, WA",CAMANO ISLAND,WA,ISLAND
98607,"CAMAS, WA",CAMAS,WA,CLARK
98430,"CAMP MURRAY, WA",CAMP MURRAY,WA,PIERCE
98323,"CARBONADO, WA",CARBONADO,WA,PIERCE
98324,"CARLSBORG, WA",CARLSBORG,WA,CLALLAM
98814,"CARLTON, WA",CARLTON,WA,OKANOGAN
98014,"CARNATION, WA",CARNATION,WA,KING
98610,"CARSON, WA",CARSON,WA,SKAMANIA
98815,"CASHMERE, WA",CASHMERE,WA,CHELAN
98611,"CASTLE ROCK, WA",CASTLE ROCK,WA,COWLITZ
98612,"CATHLAMET, WA",CATHLAMET,WA,WAHKIAKUM
98613,"CENTERVILLE, WA",CENTERVILLE,WA,KLICKITAT
98531,"CENTRALIA, WA",CENTRALIA,WA,LEWIS
99003,"CHATTAROY, WA",CHATTAROY,WA,SPOKANE
98532,"CHEHALIS, WA",CHEHALIS,WA,LEWIS
98816,"CHELAN, WA",CHELAN,WA,CHELAN
98817,"CHELAN FALLS, WA",CHELAN FALLS,WA,CHELAN
99004,"CHENEY, WA",CHENEY,WA,SPOKANE
99109,"CHEWELAH, WA",CHEWELAH,WA,STEVENS
98325,"CHIMACUM, WA",CHIMACUM,WA,JEFFERSON
98614,"CHINOOK, WA",CHINOOK,WA,PACIFIC
98533,"CINEBAR, WA",CINEBAR,WA,LEWIS
98326,"CLALLAM BAY, WA",CLALLAM BAY,WA,CLALLAM
99403,"CLARKSTON, WA",CLARKSTON,WA,ASOTIN
99110,"CLAYTON, WA",CLAYTON,WA,STEVENS
98922,"CLE ELUM, WA",CLE ELUM,WA,KITTITAS
98235,"CLEARLAKE, WA",CLEARLAKE,WA,SKAGIT
98236,"CLINTON, WA",CLINTON,WA,ISLAND
99005,"COLBERT, WA",COLBERT,WA,SPOKANE
99111,"COLFAX, WA",COLFAX,WA,WHITMAN
99324,"COLLEGE PLACE, WA",COLLEGE PLACE,WA,WALLA WALLA
99113,"COLTON, WA",COLTON,WA,WHITMAN
99114,"COLVILLE, WA",COLVILLE,WA,STEVENS
98819,"CONCONULLY, WA",CONCONULLY,WA,OKANOGAN
98237,"CONCRETE, WA",CONCRETE,WA,SKAGIT
99326,"CONNELL, WA",CONNELL,WA,FRANKLIN
98238,"CONWAY, WA",CONWAY,WA,SKAGIT
98535,"COPALIS BEACH, WA",COPALIS BEACH,WA,GRAYS HARBOR
98536,"COPALIS CROSSING, WA",COPALIS CROSSING,WA,GRAYS HARBOR
98537,"COSMOPOLIS, WA",COSMOPOLIS,WA,GRAYS HARBOR
98616,"COUGAR, WA",COUGAR,WA,COWLITZ
99115,"COULEE CITY, WA",COULEE CITY,WA,GRANT
99116,"COULEE DAM, WA",COULEE DAM,WA,OKANOGAN
98239,"COUPEVILLE, WA",COUPEVILLE,WA,ISLAND
98923,"COWICHE, WA",COWICHE,WA,YAKIMA
99117,"CRESTON, WA",CRESTON,WA,LINCOLN
99118,"CURLEW, WA",CURLEW,WA,FERRY
98538,"CURTIS, WA",CURTIS,WA,LEWIS
99119,"CUSICK, WA",CUSICK,WA,PEND OREILLE
98240,"CUSTER, WA",CUSTER,WA,WHATCOM
98617,"DALLESPORT, WA",DALLESPORT,WA,KLICKITAT
99121,"DANVILLE, WA",DANVILLE,WA,FERRY
98241,"DARRINGTON, WA",DARRINGTON,WA,SNOHOMISH
99122,"DAVENPORT, WA",DAVENPORT,WA,LINCOLN
99328,"DAYTON, WA",DAYTON,WA,COLUMBIA
98243,"DEER HARBOR, WA",DEER HARBOR,WA,SAN JUAN
99006,"DEER PARK, WA",DEER PARK,WA,SPOKANE
98244,"DEMING, WA",DEMING,WA,WHATCOM
99329,"DIXIE, WA",DIXIE,WA,WALLA WALLA
98539,"DOTY, WA",DOTY,WA,LEWIS
98821,"DRYDEN, WA",DRYDEN,WA,CHELAN
98327,"DUPONT, WA",DUPONT,WA,PIERCE
98019,"DUVALL, WA",DUVALL,WA,KING
98540,"EAST OLYMPIA, WA",EAST OLYMPIA,WA,THURSTON
98802,"EAST WENATCHEE, WA",EAST WENATCHEE,WA,DOUGLAS
98925,"EASTON, WA",EASTON,WA,KITTITAS
98245,"EASTSOUND, WA",EASTSOUND,WA,SAN JUAN
98328,"EATONVILLE, WA",EATONVILLE,WA,PIERCE
98020,"EDMONDS, WA",EDMONDS,WA,SNOHOMISH
98026,"EDMONDS, WA",EDMONDS,WA,SNOHOMISH
99008,"EDWALL, WA",EDWALL,WA,LINCOLN
98330,"ELBE, WA",ELBE,WA,PIERCE
99123,"ELECTRIC CITY, WA",ELECTRIC CITY,WA,GRANT
99009,"ELK, WA",ELK,WA,SPOKANE
98926,"ELLENSBURG, WA",ELLENSBURG,WA,KITTITAS
98541,"ELMA, WA",ELMA,WA,GRAYS HARBOR
99124,"ELMER CITY, WA",ELMER CITY,WA,OKANOGAN
99330,"ELTOPIA, WA",ELTOPIA,WA,FRANKLIN
99125,"ENDICOTT, WA",ENDICOTT,WA,WHITMAN
98822,"ENTIAT, WA",ENTIAT,WA,CHELAN
98022,"ENUMCLAW, WA",ENUMCLAW,WA,KING
98823,"EPHRATA, WA",EPHRATA,WA,GRANT
98542,"ETHEL, WA",ETHEL,WA,LEWIS
99126,"EVANS, WA",EVANS,WA,STEVENS
98201,"EVERETT, WA",EVERETT,WA,SNOHOMISH
98203,"EVERETT, WA",EVERETT,WA,SNOHOMISH
98204,"EVERETT, WA",EVERETT,WA,SNOHOMISH
98205,"EVERETT, WA",EVERETT,WA,SNOHOMISH
98206,"EVERETT, WA",EVERETT,WA,SNOHOMISH
98207,"EVERETT, WA",EVERETT,WA,SNOHOMISH
98208,"EVERETT, WA",EVERETT,WA,SNOHOMISH
98213,"EVERETT, WA",EVERETT,WA,SNOHOMISH
98247,"EVERSON, WA",EVERSON,WA,WHATCOM
99011,"FAIRCHILD AIR FORCE BASE, WA",FAIRCHILD AIR FORCE BASE,WA,SPOKANE
99012,"FAIRFIELD, WA",FAIRFIELD,WA,SPOKANE
98024,"FALL CITY, WA",FALL CITY,WA,KING
99128,"FARMINGTON, WA",FARMINGTON,WA,WHITMAN
98003,"FEDERAL WAY, WA",FEDERAL WAY,WA,KING
98023,"FEDERAL WAY, WA",FEDERAL WAY,WA,KING
98063,"FEDERAL WAY, WA",FEDERAL WAY,WA,KING
98093,"FEDERAL WAY, WA",FEDERAL WAY,WA,KING
98248,"FERNDALE, WA",FERNDALE,WA,WHATCOM
99013,"FORD, WA",FORD,WA,STEVENS
98331,"FORKS, WA",FORKS,WA,CLALLAM
99014,"FOUR LAKES, WA",FOUR LAKES,WA,SPOKANE
98333,"FOX ISLAND, WA",FOX ISLAND,WA,PIERCE
98249,"FREELAND, WA",FREELAND,WA,ISLAND
98250,"FRIDAY HARBOR, WA",FRIDAY HARBOR,WA,SAN JUAN
99129,"FRUITLAND, WA",FRUITLAND,WA,STEVENS
99130,"GARFIELD, WA",GARFIELD,WA,WHITMAN
98824,"GEORGE, WA",GEORGE,WA,GRANT
98329,"GIG HARBOR, WA",GIG HARBOR,WA,PIERCE
98332,"GIG HARBOR, WA",GIG HARBOR,WA,PIERCE
98335,"GIG HARBOR, WA",GIG HARBOR,WA,PIERCE
98336,"GLENOMA, WA",GLENOMA,WA,LEWIS
98619,"GLENWOOD, WA",GLENWOOD,WA,KLICKITAT
98251,"GOLD BAR, WA",GOLD BAR,WA,SNOHOMISH
98620,"GOLDENDALE, WA",GOLDENDALE,WA,KLICKITAT
98338,"GRAHAM, WA",GRAHAM,WA,PIERCE
99133,"GRAND COULEE, WA",GRAND COULEE,WA,GRANT
98930,"GRANDVIEW, WA",GRANDVIEW,WA,YAKIMA
98932,"GRANGER, WA",GRANGER,WA,YAKIMA
98252,"GRANITE FALLS, WA",GRANITE FALLS,WA,SNOHOMISH
98546,"GRAPEVIEW, WA",GRAPEVIEW,WA,MASON
98547,"GRAYLAND, WA",GRAYLAND,WA,GRAYS HARBOR
98621,"GRAYS RIVER, WA",GRAYS RIVER,WA,WAHKIAKUM
99016,"GREENACRES, WA",GREENACRES,WA,SPOKANE
98253,"GREENBANK, WA",GREENBANK,WA,ISLAND
98255,"HAMILTON, WA",HAMILTON,WA,SKAGIT
98340,"HANSVILLE, WA",HANSVILLE,WA,KITSAP
98933,"HARRAH, WA",HARRAH,WA,YAKIMA
99134,"HARRINGTON, WA",HARRINGTON,WA,LINCOLN
99135,"HARTLINE, WA",HARTLINE,WA,GRANT
98622,"HEISSON, WA",HEISSON,WA,CLARK
98025,"HOBART, WA",HOBART,WA,KING
98548,"HOODSPORT, WA",HOODSPORT,WA,MASON
98550,"HOQUIAM, WA",HOQUIAM,WA,GRAYS HARBOR
98552,"HUMPTULIPS, WA",HUMPTULIPS,WA,GRAYS HARBOR
99137,"HUNTERS, WA",HUNTERS,WA,STEVENS
98623,"HUSUM, WA",HUSUM,WA,KLICKITAT
98624,"ILWACO, WA",ILWACO,WA,PACIFIC
99138,"INCHELIUM, WA",INCHELIUM,WA,FERRY
98256,"INDEX, WA",INDEX,WA,SNOHOMISH
98342,"INDIANOLA, WA",INDIANOLA,WA,KITSAP
99139,"IONE, WA",IONE,WA,PEND OREILLE
98027,"ISSAQUAH, WA",ISSAQUAH,WA,KING
98029,"ISSAQUAH, WA",ISSAQUAH,WA,KING
98343,"JOYCE, WA",JOYCE,WA,CLALLAM
98625,"KALAMA, WA",KALAMA,WA,COWLITZ
98344,"KAPOWSIN, WA",KAPOWSIN,WA,PIERCE
99140,"KELLER, WA",KELLER,WA,FERRY
98626,"KELSO, WA",KELSO,WA,COWLITZ
98028,"KENMORE, WA",KENMORE,WA,KING
99336,"KENNEWICK, WA",KENNEWICK,WA,BENTON
99337,"KENNEWICK, WA",KENNEWICK,WA,BENTON
99338,"KENNEWICK, WA",KENNEWICK,WA,BENTON
98030,"KENT, WA",KENT,WA,KING
98031,"KENT, WA",KENT,WA,KING
98032,"KENT, WA",KENT,WA,KING
98035,"KENT, WA",KENT,WA,KING
98042,"KENT, WA",KENT,WA,KING
98064,"KENT, WA",KENT,WA,KING
98089,"KENT, WA",KENT,WA,KING
99141,"KETTLE FALLS, WA",KETTLE FALLS,WA,STEVENS
98345,"KEYPORT, WA",KEYPORT,WA,KITSAP
98346,"KINGSTON, WA",KINGSTON,WA,KITSAP
98033,"KIRKLAND, WA",KIRKLAND,WA,KING
98034,"KIRKLAND, WA",KIRKLAND,WA,KING
98083,"KIRKLAND, WA",KIRKLAND,WA,KING
98934,"KITTITAS, WA",KITTITAS,WA,KITTITAS
98628,"KLICKITAT, WA",KLICKITAT,WA,KLICKITAT
98629,"LA CENTER, WA",LA CENTER,WA,CLARK
98257,"LA CONNER, WA",LA CONNER,WA,SKAGIT
98348,"LA GRANDE, WA",LA GRANDE,WA,PIERCE
98503,"LACEY, WA",LACEY,WA,THURSTON
98509,"LACEY, WA",LACEY,WA,THURSTON
99143,"LACROSSE, WA",LACROSSE,WA,WHITMAN
98258,"LAKE STEVENS, WA",LAKE STEVENS,WA,SNOHOMISH
98349,"LAKEBAY, WA",LAKEBAY,WA,PIERCE
98439,"LAKEWOOD, WA",LAKEWOOD,WA,PIERCE
98496,"LAKEWOOD, WA",LAKEWOOD,WA,PIERCE
98497,"LAKEWOOD, WA",LAKEWOOD,WA,PIERCE
98498,"LAKEWOOD, WA",LAKEWOOD,WA,PIERCE
98499,"LAKEWOOD, WA",LAKEWOOD,WA,PIERCE
99144,"LAMONA, WA",LAMONA,WA,LINCOLN
99017,"LAMONT, WA",LAMONT,WA,WHITMAN
98260,"LANGLEY, WA",LANGLEY,WA,ISLAND
99018,"LATAH, WA",LATAH,WA,SPOKANE
98826,"LEAVENWORTH, WA",LEAVENWORTH,WA,CHELAN
98554,"LEBAM, WA",LEBAM,WA,PACIFIC
99019,"LIBERTY LAKE, WA",LIBERTY LAKE,WA,SPOKANE
98555,"LILLIWAUP, WA",LILLIWAUP,WA,MASON
99147,"LINCOLN, WA",LINCOLN,WA,LINCOLN
99341,"LIND, WA",LIND,WA,ADAMS
98556,"LITTLEROCK, WA",LITTLEROCK,WA,THURSTON
98631,"LONG BEACH, WA",LONG BEACH,WA,PACIFIC
98351,"LONGBRANCH, WA",LONGBRANCH,WA,PIERCE
98397,"LONGMIRE, WA",LONGMIRE,WA,PIERCE
98632,"LONGVIEW, WA",LONGVIEW,WA,COWLITZ
98827,"LOOMIS, WA",LOOMIS,WA,OKANOGAN
99148,"LOON LAKE, WA",LOON LAKE,WA,STEVENS
98261,"LOPEZ ISLAND, WA",LOPEZ ISLAND,WA,SAN JUAN
98262,"LUMMI ISLAND, WA",LUMMI ISLAND,WA,WHATCOM
98635,"LYLE, WA",LYLE,WA,KLICKITAT
98263,"LYMAN, WA",LYMAN,WA,SKAGIT
98264,"LYNDEN, WA",LYNDEN,WA,WHATCOM
98036,"LYNNWOOD, WA",LYNNWOOD,WA,SNOHOMISH
98037,"LYNNWOOD, WA",LYNNWOOD,WA,SNOHOMISH
98046,"LYNNWOOD, WA",LYNNWOOD,WA,SNOHOMISH
98087,"LYNNWOOD, WA",LYNNWOOD,WA,SNOHOMISH
98935,"MABTON, WA",MABTON,WA,YAKIMA
98828,"MALAGA, WA",MALAGA,WA,CHELAN
99149,"MALDEN, WA",MALDEN,WA,WHITMAN
99150,"MALO, WA",MALO,WA,FERRY
98559,"MALONE, WA",MALONE,WA,GRAYS HARBOR
98829,"MALOTT, WA",MALOTT,WA,OKANOGAN
98353,"MANCHESTER, WA",MANCHESTER,WA,KITSAP
98830,"MANSFIELD, WA",MANSFIELD,WA,DOUGLAS
98831,"MANSON, WA",MANSON,WA,CHELAN
98266,"MAPLE FALLS, WA",MAPLE FALLS,WA,WHATCOM
98038,"MAPLE VALLEY, WA",MAPLE VALLEY,WA,KING
98267,"MARBLEMOUNT, WA",MARBLEMOUNT,WA,SKAGIT
99151,"MARCUS, WA",MARCUS,WA,STEVENS
98832,"MARLIN, WA",MARLIN,WA,GRANT
99020,"MARSHALL, WA",MARSHALL,WA,SPOKANE
98270,"MARYSVILLE, WA",MARYSVILLE,WA,SNOHOMISH
98271,"MARYSVILLE, WA",MARYSVILLE,WA,SNOHOMISH
98560,"MATLOCK, WA",MATLOCK,WA,MASON
99349,"MATTAWA, WA",MATTAWA,WA,GRANT
98833,"MAZAMA, WA",MAZAMA,WA,OKANOGAN
98438,"MCCHORD AFB, WA",MCCHORD AFB,WA,PIERCE
98557,"MCCLEARY, WA",MCCLEARY,WA,GRAYS HARBOR
98558,"MCKENNA, WA",MCKENNA,WA,PIERCE
99021,"MEAD, WA",MEAD,WA,SPOKANE
99022,"MEDICAL LAKE, WA",MEDICAL LAKE,WA,SPOKANE
98039,"MEDINA, WA",MEDINA,WA,KING
98561,"MENLO, WA",MENLO,WA,PACIFIC
98040,"MERCER ISLAND, WA",MERCER ISLAND,WA,KING
99343,"MESA, WA",MESA,WA,FRANKLIN
99152,"METALINE, WA",METALINE,WA,PEND OREILLE
99153,"METALINE FALLS, WA",METALINE FALLS,WA,PEND OREILLE
98834,"METHOW, WA",METHOW,WA,OKANOGAN
99023,"MICA, WA",MICA,WA,SPOKANE
98082,"MILL CREEK, WA",MILL CREEK,WA,SNOHOMISH
98354,"MILTON, WA",MILTON,WA,PIERCE
98355,"MINERAL, WA",MINERAL,WA,LEWIS
98562,"MOCLIPS, WA",MOCLIPS,WA,GRAYS HARBOR
99154,"MOHLER, WA",MOHLER,WA,LINCOLN
98836,"MONITOR, WA",MONITOR,WA,CHELAN
98272,"MONROE, WA",MONROE,WA,SNOHOMISH
98563,"MONTESANO, WA",MONTESANO,WA,GRAYS HARBOR
98356,"MORTON, WA",MORTON,WA,LEWIS
98837,"MOSES LAKE, WA",MOSES LAKE,WA,GRANT
98564,"MOSSYROCK, WA",MOSSYROCK,WA,LEWIS
98273,"MOUNT VERNON, WA",MOUNT VERNON,WA,SKAGIT
98274,"MOUNT VERNON, WA",MOUNT VERNON,WA,SKAGIT
98043,"MOUNTLAKE TERRACE, WA",MOUNTLAKE TERRACE,WA,SNOHOMISH
98936,"MOXEE, WA",MOXEE,WA,YAKIMA
98275,"MUKILTEO, WA",MUKILTEO,WA,SNOHOMISH
98937,"NACHES, WA",NACHES,WA,YAKIMA
98637,"NAHCOTTA, WA",NAHCOTTA,WA,PACIFIC
98565,"NAPAVINE, WA",NAPAVINE,WA,LEWIS
98638,"NASELLE, WA",NASELLE,WA,PACIFIC
98357,"NEAH BAY, WA",NEAH BAY,WA,CLALLAM
98566,"NEILTON, WA",NEILTON,WA,GRAYS HARBOR
99155,"NESPELEM, WA",NESPELEM,WA,OKANOGAN
99025,"NEWMAN LAKE, WA",NEWMAN LAKE,WA,SPOKANE
99156,"NEWPORT, WA",NEWPORT,WA,PEND OREILLE
99026,"NINE MILE FALLS, WA",NINE MILE FALLS,WA,SPOKANE
98276,"NOOKSACK, WA",NOOKSACK,WA,WHATCOM
98358,"NORDLAND, WA",NORDLAND,WA,JEFFERSON
98045,"NORTH BEND, WA",NORTH BEND,WA,KING
98639,"NORTH BONNEVILLE, WA",NORTH BONNEVILLE,WA,SKAMANIA
98259,"NORTH LAKEWOOD, WA",NORTH LAKEWOOD,WA,SNOHOMISH
99157,"NORTHPORT, WA",NORTHPORT,WA,STEVENS
98277,"OAK HARBOR, WA",OAK HARBOR,WA,ISLAND
98278,"OAK HARBOR, WA",OAK HARBOR,WA,ISLAND
99158,"OAKESDALE, WA",OAKESDALE,WA,WHITMAN
98568,"OAKVILLE, WA",OAKVILLE,WA,GRAYS HARBOR
98640,"OCEAN PARK, WA",OCEAN PARK,WA,PACIFIC
98569,"OCEAN SHORES, WA",OCEAN SHORES,WA,GRAYS HARBOR
99159,"ODESSA, WA",ODESSA,WA,LINCOLN
98840,"OKANOGAN, WA",OKANOGAN,WA,OKANOGAN
98359,"OLALLA, WA",OLALLA,WA,KITSAP
98279,"OLGA, WA",OLGA,WA,SAN JUAN
98501,"OLYMPIA, WA",OLYMPIA,WA,THURSTON
98502,"OLYMPIA, WA",OLYMPIA,WA,THURSTON
98504,"OLYMPIA, WA",OLYMPIA,WA,THURSTON
98505,"OLYMPIA, WA",OLYMPIA,WA,THURSTON
98506,"OLYMPIA, WA",OLYMPIA,WA,THURSTON
98507,"OLYMPIA, WA",OLYMPIA,WA,THURSTON
98508,"OLYMPIA, WA",OLYMPIA,WA,THURSTON
98512,"OLYMPIA, WA",OLYMPIA,WA,THURSTON
98513,"OLYMPIA, WA",OLYMPIA,WA,THURSTON
98516,"OLYMPIA, WA",OLYMPIA,WA,THURSTON
98599,"OLYMPIA, WA",OLYMPIA,WA,THURSTON
98841,"OMAK, WA",OMAK,WA,OKANOGAN
98570,"ONALASKA, WA",ONALASKA,WA,LEWIS
98280,"ORCAS, WA",ORCAS,WA,SAN JUAN
99160,"ORIENT, WA",ORIENT,WA,FERRY
98843,"ORONDO, WA",ORONDO,WA,DOUGLAS
98844,"OROVILLE, WA",OROVILLE,WA,OKANOGAN
98360,"ORTING, WA",ORTING,WA,PIERCE
99344,"OTHELLO, WA",OTHELLO,WA,ADAMS
99027,"OTIS ORCHARDS, WA",OTIS ORCHARDS,WA,SPOKANE
98938,"OUTLOOK, WA",OUTLOOK,WA,YAKIMA
98641,"OYSTERVILLE, WA",OYSTERVILLE,WA,PACIFIC
98047,"PACIFIC, WA",PACIFIC,WA,KING
98571,"PACIFIC BEACH, WA",PACIFIC BEACH,WA,GRAYS HARBOR
98361,"PACKWOOD, WA",PACKWOOD,WA,LEWIS
98845,"PALISADES, WA",PALISADES,WA,DOUGLAS
99161,"PALOUSE, WA",PALOUSE,WA,WHITMAN
98398,"PARADISE INN, WA",PARADISE INN,WA,PIERCE
98939,"PARKER, WA",PARKER,WA,YAKIMA
99301,"PASCO, WA",PASCO,WA,FRANKLIN
99302,"PASCO, WA",PASCO,WA,FRANKLIN
98846,"PATEROS, WA",PATEROS,WA,OKANOGAN
99345,"PATERSON, WA",PATERSON,WA,BENTON
98572,"PE ELL, WA",PE ELL,WA,LEWIS
98847,"PESHASTIN, WA",PESHASTIN,WA,CHELAN
99346,"PLYMOUTH, WA",PLYMOUTH,WA,BENTON
98281,"POINT ROBERTS, WA",POINT ROBERTS,WA,WHATCOM
99347,"POMEROY, WA",POMEROY,WA,GARFIELD
98362,"PORT ANGELES, WA",PORT ANGELES,WA,CLALLAM
98363,"PORT ANGELES, WA",PORT ANGELES,WA,CLALLAM
98364,"PORT GAMBLE, WA",PORT GAMBLE,WA,KITSAP
98339,"PORT HADLOCK, WA",PORT HADLOCK,WA,JEFFERSON
98365,"PORT LUDLOW, WA",PORT LUDLOW,WA,JEFFERSON
98366,"PORT ORCHARD, WA",PORT ORCHARD,WA,KITSAP
98367,"PORT ORCHARD, WA",PORT ORCHARD,WA,KITSAP
98368,"PORT TOWNSEND, WA",PORT TOWNSEND,WA,JEFFERSON
98370,"POULSBO, WA",POULSBO,WA,KITSAP
99348,"PRESCOTT, WA",PRESCOTT,WA,WALLA WALLA
98050,"PRESTON, WA",PRESTON,WA,KING
99350,"PROSSER, WA",PROSSER,WA,BENTON
99163,"PULLMAN, WA",PULLMAN,WA,WHITMAN
99164,"PULLMAN, WA",PULLMAN,WA,WHITMAN
98371,"PUYALLUP, WA",PUYALLUP,WA,PIERCE
98372,"PUYALLUP, WA",PUYALLUP,WA,PIERCE
98373,"PUYALLUP, WA",PUYALLUP,WA,PIERCE
98374,"PUYALLUP, WA",PUYALLUP,WA,PIERCE
98375,"PUYALLUP, WA",PUYALLUP,WA,PIERCE
98376,"QUILCENE, WA",QUILCENE,WA,JEFFERSON
98575,"QUINAULT, WA",QUINAULT,WA,GRAYS HARBOR
98848,"QUINCY, WA",QUINCY,WA,GRANT
98576,"RAINIER, WA",RAINIER,WA,THURSTON
98377,"RANDLE, WA",RANDLE,WA,LEWIS
98051,"RAVENSDALE, WA",RAVENSDALE,WA,KING
98577,"RAYMOND, WA",RAYMOND,WA,PACIFIC
99029,"REARDAN, WA",REARDAN,WA,LINCOLN
98052,"REDMOND, WA",REDMOND,WA,KING
98053,"REDMOND, WA",REDMOND,WA,KING
98073,"REDMOND, WA",REDMOND,WA,KING
98055,"RENTON, WA",RENTON,WA,KING
98056,"RENTON, WA",RENTON,WA,KING
98057,"RENTON, WA",RENTON,WA,KING
98058,"RENTON, WA",RENTON,WA,KING
98059,"RENTON, WA",RENTON,WA,KING
99166,"REPUBLIC, WA",REPUBLIC,WA,FERRY
99167,"RICE, WA",RICE,WA,STEVENS
99352,"RICHLAND, WA",RICHLAND,WA,BENTON
99354,"RICHLAND, WA",RICHLAND,WA,BENTON
98642,"RIDGEFIELD, WA",RIDGEFIELD,WA,CLARK
99169,"RITZVILLE, WA",RITZVILLE,WA,ADAMS
98849,"RIVERSIDE, WA",RIVERSIDE,WA,OKANOGAN
98579,"ROCHESTER, WA",ROCHESTER,WA,THURSTON
98850,"ROCK ISLAND, WA",ROCK ISLAND,WA,DOUGLAS
99030,"ROCKFORD, WA",ROCKFORD,WA,SPOKANE
98283,"ROCKPORT, WA",ROCKPORT,WA,SKAGIT
98061,"ROLLINGBAY, WA",ROLLINGBAY,WA,KITSAP
98940,"RONALD, WA",RONALD,WA,KITTITAS
99356,"ROOSEVELT, WA",ROOSEVELT,WA,KLICKITAT
99170,"ROSALIA, WA",ROSALIA,WA,WHITMAN
98643,"ROSBURG, WA",ROSBURG,WA,WAHKIAKUM
98941,"ROSLYN, WA",ROSLYN,WA,KITTITAS
98580,"ROY, WA",ROY,WA,PIERCE
99357,"ROYAL CITY, WA",ROYAL CITY,WA,GRANT
99171,"SAINT JOHN, WA",SAINT JOHN,WA,WHITMAN
98582,"SALKUM, WA",SALKUM,WA,LEWIS
98074,"SAMMAMISH, WA",SAMMAMISH,WA,KING
98075,"SAMMAMISH, WA",SAMMAMISH,WA,KING
98583,"SATSOP, WA",SATSOP,WA,GRAYS HARBOR
98380,"SEABECK, WA",SEABECK,WA,KITSAP
98062,"SEAHURST, WA",SEAHURST,WA,KING
98101,"SEATTLE, WA",SEATTLE,WA,KING
98102,"SEATTLE, WA",SEATTLE,WA,KING
98103,"SEATTLE, WA",SEATTLE,WA,KING
98104,"SEATTLE, WA",SEATTLE,WA,KING
98105,"SEATTLE, WA",SEATTLE,WA,KING
98106,"SEATTLE, WA",SEATTLE,WA,KING
98107,"SEATTLE, WA",SEATTLE,WA,KING
98108,"SEATTLE, WA",SEATTLE,WA,KING
98109,"SEATTLE, WA",SEATTLE,WA,KING
98111,"SEATTLE, WA",SEATTLE,WA,KING
98112,"SEATTLE, WA",SEATTLE,WA,KING
98113,"SEATTLE, WA",SEATTLE,WA,KING
98114,"SEATTLE, WA",SEATTLE,WA,KING
98115,"SEATTLE, WA",SEATTLE,WA,KING
98116,"SEATTLE, WA",SEATTLE,WA,KING
98117,"SEATTLE, WA",SEATTLE,WA,KING
98118,"SEATTLE, WA",SEATTLE,WA,KING
98119,"SEATTLE, WA",SEATTLE,WA,KING
98121,"SEATTLE, WA",SEATTLE,WA,KING
98122,"SEATTLE, WA",SEATTLE,WA,KING
98124,"SEATTLE, WA",SEATTLE,WA,KING
98125,"SEATTLE, WA",SEATTLE,WA,KING
98126,"SEATTLE, WA",SEATTLE,WA,KING
98127,"SEATTLE, WA",SEATTLE,WA,KING
98129,"SEATTLE, WA",SEATTLE,WA,KING
98132,"SEATTLE, WA",SEATTLE,WA,KING
98133,"SEATTLE, WA",SEATTLE,WA,KING
98134,"SEATTLE, WA",SEATTLE,WA,KING
98136,"SEATTLE, WA",SEATTLE,WA,KING
98138,"SEATTLE, WA",SEATTLE,WA,KING
98139,"SEATTLE, WA",SEATTLE,WA,KING
98144,"SEATTLE, WA",SEATTLE,WA,KING
98145,"SEATTLE, WA",SEATTLE,WA,KING
98146,"SEATTLE, WA",SEATTLE,WA,KING
98148,"SEATTLE, WA",SEATTLE,WA,KING
98154,"SEATTLE, WA",SEATTLE,WA,KING
98155,"SEATTLE, WA",SEATTLE,WA,KING
98158,"SEATTLE, WA",SEATTLE,WA,KING
98160,"SEATTLE, WA",SEATTLE,WA,KING
98161,"SEATTLE, WA",SEATTLE,WA,KING
98164,"SEATTLE, WA",SEATTLE,WA,KING
98165,"SEATTLE, WA",SEATTLE,WA,KING
98166,"SEATTLE, WA",SEATTLE,WA,KING
98168,"SEATTLE, WA",SEATTLE,WA,KING
98174,"SEATTLE, WA",SEATTLE,WA,KING
98175,"SEATTLE, WA",SEATTLE,WA,KING
98177,"SEATTLE, WA",SEATTLE,WA,KING
98178,"SEATTLE, WA",SEATTLE,WA,KING
98181,"SEATTLE, WA",SEATTLE,WA,KING
98188,"SEATTLE, WA",SEATTLE,WA,KING
98191,"SEATTLE, WA",SEATTLE,WA,KING
98194,"SEATTLE, WA",SEATTLE,WA,KING
98195,"SEATTLE, WA",SEATTLE,WA,KING
98198,"SEATTLE, WA",SEATTLE,WA,KING
98199,"SEATTLE, WA",SEATTLE,WA,KING
98644,"SEAVIEW, WA",SEAVIEW,WA,PACIFIC
98284,"SEDRO WOOLLEY, WA",SEDRO WOOLLEY,WA,SKAGIT
98381,"SEKIU, WA",SEKIU,WA,CLALLAM
98942,"SELAH, WA",SELAH,WA,YAKIMA
98382,"SEQUIM, WA",SEQUIM,WA,CLALLAM
98286,"SHAW ISLAND, WA",SHAW ISLAND,WA,SAN JUAN
98584,"SHELTON, WA",SHELTON,WA,MASON
98287,"SILVANA, WA",SILVANA,WA,SNOHOMISH
98585,"SILVER CREEK, WA",SILVER CREEK,WA,LEWIS
98315,"SILVERDALE, WA",SILVERDALE,WA,KITSAP
98383,"SILVERDALE, WA",SILVERDALE,WA,KITSAP
98645,"SILVERLAKE, WA",SILVERLAKE,WA,COWLITZ
98647,"SKAMOKAWA, WA",SKAMOKAWA,WA,WAHKIAKUM
98288,"SKYKOMISH, WA",SKYKOMISH,WA,KING
98290,"SNOHOMISH, WA",SNOHOMISH,WA,SNOHOMISH
98291,"SNOHOMISH, WA",SNOHOMISH,WA,SNOHOMISH
98296,"SNOHOMISH, WA",SNOHOMISH,WA,SNOHOMISH
98065,"SNOQUALMIE, WA",SNOQUALMIE,WA,KING
98068,"SNOQUALMIE PASS, WA",SNOQUALMIE PASS,WA,KITTITAS
98851,"SOAP LAKE, WA",SOAP LAKE,WA,GRANT
98586,"SOUTH BEND, WA",SOUTH BEND,WA,PACIFIC
98943,"SOUTH CLE ELUM, WA",SOUTH CLE ELUM,WA,KITTITAS
98384,"SOUTH COLBY, WA",SOUTH COLBY,WA,KITSAP
98385,"SOUTH PRAIRIE, WA",SOUTH PRAIRIE,WA,PIERCE
98386,"SOUTHWORTH, WA",SOUTHWORTH,WA,KITSAP
98387,"SPANAWAY, WA",SPANAWAY,WA,PIERCE
99031,"SPANGLE, WA",SPANGLE,WA,SPOKANE
99201,"SPOKANE, WA",SPOKANE,WA,SPOKANE
99202,"SPOKANE, WA",SPOKANE,WA,SPOKANE
99203,"SPOKANE, WA",SPOKANE,WA,SPOKANE
99204,"SPOKANE, WA",SPOKANE,WA,SPOKANE
99205,"SPOKANE, WA",SPOKANE,WA,SPOKANE
99206,"SPOKANE, WA",SPOKANE,WA,SPOKANE
99207,"SPOKANE, WA",SPOKANE,WA,SPOKANE
99208,"SPOKANE, WA",SPOKANE,WA,SPOKANE
99209,"SPOKANE, WA",SPOKANE,WA,SPOKANE
99210,"SPOKANE, WA",SPOKANE,WA,SPOKANE
99211,"SPOKANE, WA",SPOKANE,WA,SPOKANE
99212,"SPOKANE, WA",SPOKANE,WA,SPOKANE
99213,"SPOKANE, WA",SPOKANE,WA,SPOKANE
99214,"SPOKANE, WA",SPOKANE,WA,SPOKANE
99216,"SPOKANE, WA",SPOKANE,WA,SPOKANE
99217,"SPOKANE, WA",SPOKANE,WA,SPOKANE
99218,"SPOKANE, WA",SPOKANE,WA,SPOKANE
99219,"SPOKANE, WA",SPOKANE,WA,SPOKANE
99220,"SPOKANE, WA",SPOKANE,WA,SPOKANE
99223,"SPOKANE, WA",SPOKANE,WA,SPOKANE
99224,"SPOKANE, WA",SPOKANE,WA,SPOKANE
99228,"SPOKANE, WA",SPOKANE,WA,SPOKANE
99251,"SPOKANE, WA",SPOKANE,WA,SPOKANE
99252,"SPOKANE, WA",SPOKANE,WA,SPOKANE
99258,"SPOKANE, WA",SPOKANE,WA,SPOKANE
99260,"SPOKANE, WA",SPOKANE,WA,SPOKANE
99032,"SPRAGUE, WA",SPRAGUE,WA,LINCOLN
99173,"SPRINGDALE, WA",SPRINGDALE,WA,STEVENS
98292,"STANWOOD, WA",STANWOOD,WA,SNOHOMISH
99359,"STARBUCK, WA",STARBUCK,WA,COLUMBIA
98293,"STARTUP, WA",STARTUP,WA,SNOHOMISH
98852,"STEHEKIN, WA",STEHEKIN,WA,CHELAN
98388,"STEILACOOM, WA",STEILACOOM,WA,PIERCE
99174,"STEPTOE, WA",STEPTOE,WA,WHITMAN
98648,"STEVENSON, WA",STEVENSON,WA,SKAMANIA
98853,"STRATFORD, WA",STRATFORD,WA,GRANT
98294,"SULTAN, WA",SULTAN,WA,SNOHOMISH
98295,"SUMAS, WA",SUMAS,WA,WHATCOM
98352,"SUMNER, WA",SUMNER,WA,PIERCE
98390,"SUMNER, WA",SUMNER,WA,PIERCE
98944,"SUNNYSIDE, WA",SUNNYSIDE,WA,YAKIMA
98392,"SUQUAMISH, WA",SUQUAMISH,WA,KITSAP
98401,"TACOMA, WA",TACOMA,WA,PIERCE
98402,"TACOMA, WA",TACOMA,WA,PIERCE
98403,"TACOMA, WA",TACOMA,WA,PIERCE
98404,"TACOMA, WA",TACOMA,WA,PIERCE
98405,"TACOMA, WA",TACOMA,WA,PIERCE
98406,"TACOMA, WA",TACOMA,WA,PIERCE
98407,"TACOMA, WA",TACOMA,WA,PIERCE
98408,"TACOMA, WA",TACOMA,WA,PIERCE
98409,"TACOMA, WA",TACOMA,WA,PIERCE
98411,"TACOMA, WA",TACOMA,WA,PIERCE
98413,"TACOMA, WA",TACOMA,WA,PIERCE
98415,"TACOMA, WA",TACOMA,WA,PIERCE
98416,"TACOMA, WA",TACOMA,WA,PIERCE
98417,"TACOMA, WA",TACOMA,WA,PIERCE
98418,"TACOMA, WA",TACOMA,WA,PIERCE
98419,"TACOMA, WA",TACOMA,WA,PIERCE
98421,"TACOMA, WA",TACOMA,WA,PIERCE
98422,"TACOMA, WA",TACOMA,WA,PIERCE
98424,"TACOMA, WA",TACOMA,WA,PIERCE
98431,"TACOMA, WA",TACOMA,WA,PIERCE
98433,"TACOMA, WA",TACOMA,WA,PIERCE
98443,"TACOMA, WA",TACOMA,WA,PIERCE
98444,"TACOMA, WA",TACOMA,WA,PIERCE
98445,"TACOMA, WA",TACOMA,WA,PIERCE
98446,"TACOMA, WA",TACOMA,WA,PIERCE
98447,"TACOMA, WA",TACOMA,WA,PIERCE
98448,"TACOMA, WA",TACOMA,WA,PIERCE
98464,"TACOMA, WA",TACOMA,WA,PIERCE
98465,"TACOMA, WA",TACOMA,WA,PIERCE
98466,"TACOMA, WA",TACOMA,WA,PIERCE
98490,"TACOMA, WA",TACOMA,WA,PIERCE
98493,"TACOMA, WA",TACOMA,WA,PIERCE
98587,"TAHOLAH, WA",TAHOLAH,WA,GRAYS HARBOR
98588,"TAHUYA, WA",TAHUYA,WA,MASON
99033,"TEKOA, WA",TEKOA,WA,WHITMAN
98589,"TENINO, WA",TENINO,WA,THURSTON
99176,"THORNTON, WA",THORNTON,WA,WHITMAN
98946,"THORP, WA",THORP,WA,KITTITAS
98947,"TIETON, WA",TIETON,WA,YAKIMA
98590,"TOKELAND, WA",TOKELAND,WA,PACIFIC
98591,"TOLEDO, WA",TOLEDO,WA,LEWIS
98855,"TONASKET, WA",TONASKET,WA,OKANOGAN
98948,"TOPPENISH, WA",TOPPENISH,WA,YAKIMA
99360,"TOUCHET, WA",TOUCHET,WA,WALLA WALLA
98649,"TOUTLE, WA",TOUTLE,WA,COWLITZ
98393,"TRACYTON, WA",TRACYTON,WA,KITSAP
98650,"TROUT LAKE, WA",TROUT LAKE,WA,KLICKITAT
99034,"TUMTUM, WA",TUMTUM,WA,STEVENS
98511,"TUMWATER, WA",TUMWATER,WA,THURSTON
98856,"TWISP, WA",TWISP,WA,OKANOGAN
98651,"UNDERWOOD, WA",UNDERWOOD,WA,SKAMANIA
98592,"UNION, WA",UNION,WA,MASON
99179,"UNIONTOWN, WA",UNIONTOWN,WA,WHITMAN
98467,"UNIVERSITY PLACE, WA",UNIVERSITY PLACE,WA,PIERCE
99180,"USK, WA",USK,WA,PEND OREILLE
98593,"VADER, WA",VADER,WA,LEWIS
99181,"VALLEY, WA",VALLEY,WA,STEVENS
99036,"VALLEYFORD, WA",VALLEYFORD,WA,SPOKANE
98660,"VANCOUVER, WA",VANCOUVER,WA,CLARK
98661,"VANCOUVER, WA",VANCOUVER,WA,CLARK
98662,"VANCOUVER, WA",VANCOUVER,WA,CLARK
98663,"VANCOUVER, WA",VANCOUVER,WA,CLARK
98664,"VANCOUVER, WA",VANCOUVER,WA,CLARK
98665,"VANCOUVER, WA",VANCOUVER,WA,CLARK
98666,"VANCOUVER, WA",VANCOUVER,WA,CLARK
98668,"VANCOUVER, WA",VANCOUVER,WA,CLARK
98682,"VANCOUVER, WA",VANCOUVER,WA,CLARK
98683,"VANCOUVER, WA",VANCOUVER,WA,CLARK
98684,"VANCOUVER, WA",VANCOUVER,WA,CLARK
98685,"VANCOUVER, WA",VANCOUVER,WA,CLARK
98686,"VANCOUVER, WA",VANCOUVER,WA,CLARK
98687,"VANCOUVER, WA",VANCOUVER,WA,CLARK
98950,"VANTAGE, WA",VANTAGE,WA,KITTITAS
98070,"VASHON, WA",VASHON,WA,KING
98394,"VAUGHN, WA",VAUGHN,WA,PIERCE
99037,"VERADALE, WA",VERADALE,WA,SPOKANE
98670,"WAHKIACUS, WA",WAHKIACUS,WA,KLICKITAT
99361,"WAITSBURG, WA",WAITSBURG,WA,WALLA WALLA
99362,"WALLA WALLA, WA",WALLA WALLA,WA,WALLA WALLA
99363,"WALLULA, WA",WALLULA,WA,WALLA WALLA
98951,"WAPATO, WA",WAPATO,WA,YAKIMA
98857,"WARDEN, WA",WARDEN,WA,GRANT
98671,"WASHOUGAL, WA",WASHOUGAL,WA,CLARK
99371,"WASHTUCNA, WA",WASHTUCNA,WA,ADAMS
98858,"WATERVILLE, WA",WATERVILLE,WA,DOUGLAS
98859,"WAUCONDA, WA",WAUCONDA,WA,OKANOGAN
98395,"WAUNA, WA",WAUNA,WA,PIERCE
99039,"WAVERLY, WA",WAVERLY,WA,SPOKANE
99040,"WELLPINIT, WA",WELLPINIT,WA,STEVENS
98801,"WENATCHEE, WA",WENATCHEE,WA,CHELAN
98807,"WENATCHEE, WA",WENATCHEE,WA,CHELAN
99353,"WEST RICHLAND, WA",WEST RICHLAND,WA,BENTON
98595,"WESTPORT, WA",WESTPORT,WA,GRAYS HARBOR
98672,"WHITE SALMON, WA",WHITE SALMON,WA,KLICKITAT
98952,"WHITE SWAN, WA",WHITE SWAN,WA,YAKIMA
99185,"WILBUR, WA",WILBUR,WA,LINCOLN
98396,"WILKESON, WA",WILKESON,WA,PIERCE
98860,"WILSON CREEK, WA",WILSON CREEK,WA,GRANT
98596,"WINLOCK, WA",WINLOCK,WA,LEWIS
98862,"WINTHROP, WA",WINTHROP,WA,OKANOGAN
98673,"WISHRAM, WA",WISHRAM,WA,KLICKITAT
98072,"WOODINVILLE, WA",WOODINVILLE,WA,KING
98077,"WOODINVILLE, WA",WOODINVILLE,WA,KING
98674,"WOODLAND, WA",WOODLAND,WA,COWLITZ
98675,"YACOLT, WA",YACOLT,WA,CLARK
98901,"YAKIMA, WA",YAKIMA,WA,YAKIMA
98902,"YAKIMA, WA",YAKIMA,WA,YAKIMA
98903,"YAKIMA, WA",YAKIMA,WA,YAKIMA
98907,"YAKIMA, WA",YAKIMA,WA,YAKIMA
98908,"YAKIMA, WA",YAKIMA,WA,YAKIMA
98909,"YAKIMA, WA",YAKIMA,WA,YAKIMA
98597,"YELM, WA",YELM,WA,THURSTON
98953,"ZILLAH, WA",ZILLAH,WA,YAKIMA
,,,,
,,,,
"For more information, kindly visit : www.downloadexcelfiles.com",,,,
